[
    {
        "Altitude(m)": 559159.3385294427,
        "Argument of Periapsis(deg)": 0.013245982221427002,
        "Eccentricity": 0.0,
        "Inclination(deg)": 53.0,
        "Latitude(deg)": 49.91508839000979,
        "Longitude(deg)": -48.64616547829211,
        "Mean Anomaly(deg)": -287.0895142648448,
        "RAAN(deg)": 349.9802867370561,
        "Satellite Name": "Starlink Shell 1 1543",
        "Satellite Number": 1543,
        "Semi-Major Axis(m)": 6931778.249405717,
        "Time(s)": 380
    },
    {
        "Altitude(m)": 559210.8314078157,
        "Argument of Periapsis(deg)": 0.013594560700938237,
        "Eccentricity": 0.0,
        "Inclination(deg)": 53.0,
        "Latitude(deg)": 50.139531593289604,
        "Longitude(deg)": -47.77867651420262,
        "Mean Anomaly(deg)": -286.46268306128815,
        "RAAN(deg)": 349.9797679669786,
        "Satellite Name": "Starlink Shell 1 1543",
        "Satellite Number": 1543,
        "Semi-Major Axis(m)": 6931778.249405717,
        "Time(s)": 390
    },
    {
        "Altitude(m)": 559260.6704784476,
        "Argument of Periapsis(deg)": 0.013943139180449475,
        "Eccentricity": 0.0,
        "Inclination(deg)": 53.0,
        "Latitude(deg)": 50.356792025611185,
        "Longitude(deg)": -46.90278871054904,
        "Mean Anomaly(deg)": -285.8358518577314,
        "RAAN(deg)": 349.9792491969011,
        "Satellite Name": "Starlink Shell 1 1543",
        "Satellite Number": 1543,
        "Semi-Major Axis(m)": 6931778.249405717,
        "Time(s)": 400
    },
    {
        "Altitude(m)": 559308.8254993032,
        "Argument of Periapsis(deg)": 0.014291717659960712,
        "Eccentricity": 0.0,
        "Inclination(deg)": 53.0,
        "Latitude(deg)": 50.566749199591115,
        "Longitude(deg)": -46.01863934581639,
        "Mean Anomaly(deg)": -285.2090206541747,
        "RAAN(deg)": 349.97873042682363,
        "Satellite Name": "Starlink Shell 1 1543",
        "Satellite Number": 1543,
        "Semi-Major Axis(m)": 6931778.249405717,
        "Time(s)": 410
    },
    {
        "Altitude(m)": 559355.2672811032,
        "Argument of Periapsis(deg)": 0.014640296139471948,
        "Eccentricity": 0.0,
        "Inclination(deg)": 53.0,
        "Latitude(deg)": 50.769284169197455,
        "Longitude(deg)": -45.1263819575603,
        "Mean Anomaly(deg)": -284.58218945061793,
        "RAAN(deg)": 349.97821165674617,
        "Satellite Name": "Starlink Shell 1 1543",
        "Satellite Number": 1543,
        "Semi-Major Axis(m)": 6931778.249405717,
        "Time(s)": 420
    },
    {
        "Altitude(m)": 559399.9677016713,
        "Argument of Periapsis(deg)": 0.014988874618983185,
        "Eccentricity": 0.0,
        "Inclination(deg)": 53.0,
        "Latitude(deg)": 50.96427979345525,
        "Longitude(deg)": -44.226186099096715,
        "Mean Anomaly(deg)": -283.95535824706127,
        "RAAN(deg)": 349.9776928866687,
        "Satellite Name": "Starlink Shell 1 1543",
        "Satellite Number": 1543,
        "Semi-Major Axis(m)": 6931778.249405717,
        "Time(s)": 430
    },
    {
        "Altitude(m)": 559442.8997197005,
        "Argument of Periapsis(deg)": 0.015337453098494424,
        "Eccentricity": 0.0,
        "Inclination(deg)": 53.0,
        "Latitude(deg)": 51.15162100704292,
        "Longitude(deg)": -43.318237039351324,
        "Mean Anomaly(deg)": -283.32852704350455,
        "RAAN(deg)": 349.97717411659124,
        "Satellite Name": "Starlink Shell 1 1543",
        "Satellite Number": 1543,
        "Semi-Major Axis(m)": 6931778.249405717,
        "Time(s)": 440
    },
    {
        "Altitude(m)": 559484.0373880147,
        "Argument of Periapsis(deg)": 0.01568603157800566,
        "Eccentricity": 0.0,
        "Inclination(deg)": 53.0,
        "Latitude(deg)": 51.33119509672545,
        "Longitude(deg)": -42.402736913733634,
        "Mean Anomaly(deg)": -282.70169583994783,
        "RAAN(deg)": 349.9766553465137,
        "Satellite Name": "Starlink Shell 1 1543",
        "Satellite Number": 1543,
        "Semi-Major Axis(m)": 6931778.249405717,
        "Time(s)": 450
    },
    {
        "Altitude(m)": 559523.3558662632,
        "Argument of Periapsis(deg)": 0.0160346100575169,
        "Eccentricity": 0.0,
        "Inclination(deg)": 53.0,
        "Latitude(deg)": 51.50289198245846,
        "Longitude(deg)": -41.479904295505015,
        "Mean Anomaly(deg)": -282.0748646363911,
        "RAAN(deg)": 349.97613657643626,
        "Satellite Name": "Starlink Shell 1 1543",
        "Satellite Number": 1543,
        "Semi-Major Axis(m)": 6931778.249405717,
        "Time(s)": 460
    },
    {
        "Altitude(m)": 559560.8314330988,
        "Argument of Periapsis(deg)": 0.016383188537028134,
        "Eccentricity": 0.0,
        "Inclination(deg)": 53.0,
        "Latitude(deg)": 51.666604501876755,
        "Longitude(deg)": -40.54997369603036,
        "Mean Anomaly(deg)": -281.4480334328344,
        "RAAN(deg)": 349.9756178063588,
        "Satellite Name": "Starlink Shell 1 1543",
        "Satellite Number": 1543,
        "Semi-Major Axis(m)": 6931778.249405717,
        "Time(s)": 470
    },
    {
        "Altitude(m)": 559596.4414977634,
        "Argument of Periapsis(deg)": 0.01673176701653937,
        "Eccentricity": 0.0,
        "Inclination(deg)": 53.0,
        "Latitude(deg)": 51.822228696775056,
        "Longitude(deg)": -39.61319650266567,
        "Mean Anomaly(deg)": -280.82120222927773,
        "RAAN(deg)": 349.97509903628134,
        "Satellite Name": "Starlink Shell 1 1543",
        "Satellite Number": 1543,
        "Semi-Major Axis(m)": 6931778.249405717,
        "Time(s)": 480
    },
    {
        "Altitude(m)": 559630.1646111348,
        "Argument of Periapsis(deg)": 0.017080345496050607,
        "Eccentricity": 0.0,
        "Inclination(deg)": 53.0,
        "Latitude(deg)": 51.969664100089915,
        "Longitude(deg)": -38.66984032490612,
        "Mean Anomaly(deg)": -280.194371025721,
        "RAAN(deg)": 349.9745802662038,
        "Satellite Name": "Starlink Shell 1 1543",
        "Satellite Number": 1543,
        "Semi-Major Axis(m)": 6931778.249405717,
        "Time(s)": 490
    },
    {
        "Altitude(m)": 559661.9804762163,
        "Argument of Periapsis(deg)": 0.017428923975561842,
        "Eccentricity": 0.0,
        "Inclination(deg)": 53.0,
        "Latitude(deg)": 52.108814021798864,
        "Longitude(deg)": -37.72018825855797,
        "Mean Anomaly(deg)": -279.56753982216424,
        "RAAN(deg)": 349.97406149612635,
        "Satellite Name": "Starlink Shell 1 1543",
        "Satellite Number": 1543,
        "Semi-Major Axis(m)": 6931778.249405717,
        "Time(s)": 500
    },
    {
        "Altitude(m)": 559691.8699580495,
        "Argument of Periapsis(deg)": 0.01777750245507308,
        "Eccentricity": 0.0,
        "Inclination(deg)": 53.0,
        "Latitude(deg)": 52.239585832071384,
        "Longitude(deg)": -36.764539578330584,
        "Mean Anomaly(deg)": -278.9407086186075,
        "RAAN(deg)": 349.97354272604895,
        "Satellite Name": "Starlink Shell 1 1543",
        "Satellite Number": 1543,
        "Semi-Major Axis(m)": 6931778.249405717,
        "Time(s)": 510
    },
    {
        "Altitude(m)": 559719.8150930441,
        "Argument of Periapsis(deg)": 0.018126080934584315,
        "Eccentricity": 0.0,
        "Inclination(deg)": 53.0,
        "Latitude(deg)": 52.36189123993757,
        "Longitude(deg)": -35.8032088314172,
        "Mean Anomaly(deg)": -278.3138774150508,
        "RAAN(deg)": 349.9730239559714,
        "Satellite Name": "Starlink Shell 1 1543",
        "Satellite Number": 1543,
        "Semi-Major Axis(m)": 6931778.249405717,
        "Time(s)": 520
    },
    {
        "Altitude(m)": 559745.7990977761,
        "Argument of Periapsis(deg)": 0.018474659414095554,
        "Eccentricity": 0.0,
        "Inclination(deg)": 53.0,
        "Latitude(deg)": 52.475646565759284,
        "Longitude(deg)": -34.83652484338387,
        "Mean Anomaly(deg)": -277.68704621149413,
        "RAAN(deg)": 349.97250518589397,
        "Satellite Name": "Starlink Shell 1 1543",
        "Satellite Number": 1543,
        "Semi-Major Axis(m)": 6931778.249405717,
        "Time(s)": 530
    },
    {
        "Altitude(m)": 559769.8063771296,
        "Argument of Periapsis(deg)": 0.018823237893606792,
        "Eccentricity": 0.0,
        "Inclination(deg)": 53.0,
        "Latitude(deg)": 52.580773005526126,
        "Longitude(deg)": -33.8648311504458,
        "Mean Anomaly(deg)": -277.06021500793736,
        "RAAN(deg)": 349.97198641581645,
        "Satellite Name": "Starlink Shell 1 1543",
        "Satellite Number": 1543,
        "Semi-Major Axis(m)": 6931778.249405717,
        "Time(s)": 540
    },
    {
        "Altitude(m)": 559791.8225319444,
        "Argument of Periapsis(deg)": 0.019171816373118027,
        "Eccentricity": 0.0,
        "Inclination(deg)": 53.0,
        "Latitude(deg)": 52.67719688539151,
        "Longitude(deg)": -32.88848483115949,
        "Mean Anomaly(deg)": -276.4333838043807,
        "RAAN(deg)": 349.971467645739,
        "Satellite Name": "Starlink Shell 1 1543",
        "Satellite Number": 1543,
        "Semi-Major Axis(m)": 6931778.249405717,
        "Time(s)": 550
    },
    {
        "Altitude(m)": 559811.8343660084,
        "Argument of Periapsis(deg)": 0.019520394852629266,
        "Eccentricity": 0.0,
        "Inclination(deg)": 53.0,
        "Latitude(deg)": 52.76484990445063,
        "Longitude(deg)": -31.907855253497733,
        "Mean Anomaly(deg)": -275.8065526008239,
        "RAAN(deg)": 349.9709488756616,
        "Satellite Name": "Starlink Shell 1 1543",
        "Satellite Number": 1543,
        "Semi-Major Axis(m)": 6931778.249405717,
        "Time(s)": 560
    }
]